[{"OBJECT_NAME":"STARLINK-3369","OBJECT_ID":"2022-005AQ","EPOCH":"2026-03-09T22:22:22.044576","MEAN_MOTION":15.18998951,"ECCENTRICITY":0.00032386,"INCLINATION":53.2137,"RA_OF_ASC_NODE":280.745,"ARG_OF_PERICENTER":175.5204,"MEAN_ANOMALY":184.5822,"EPHEMERIS_TYPE":0,"CLASSIFICATION_TYPE":"U","NORAD_CAT_ID":51142,"ELEMENT_SET_NO":999,"REV_AT_EPOCH":22901,"BSTAR":0.0020382455,"MEAN_MOTION_DOT":0.00043116,"MEAN_MOTION_DDOT":0},{"OBJECT_NAME":"OBJECT AK","OBJECT_ID":"2025-313AK","EPOCH":"2026-03-09T22:15:06.103872","MEAN_MOTION":15.21477682,"ECCENTRICITY":0.00118476,"INCLINATION":97.3947,"RA_OF_ASC_NODE":145.1584,"ARG_OF_PERICENTER":356.5328,"MEAN_ANOMALY":3.5824,"EPHEMERIS_TYPE":0,"CLASSIFICATION_TYPE":"U","NORAD_CAT_ID":67281,"ELEMENT_SET_NO":999,"REV_AT_EPOCH":1085,"BSTAR":0.00031140912,"MEAN_MOTION_DOT":6.947e-5,"MEAN_MOTION_DDOT":0}]
